STARLINK-2580
1 18279C 21036D   21326.14947029 -.00015075  00000-0 -10099-2 0  3267
2 18279  53.0526 228.0578 0001720  56.2432  42.0906 15.06416445    15
